OPS 6582 (TRANSIT 5B-5) 
1 00965U 64083D   26087.88148679  .00000073  00000+0  88025-4 0  9991
2 00965  90.0782 202.3825 0042683 150.5448 330.7237 13.57004520 32726
LES-1                   
1 01002U 65008C   26087.67899109  .00000004  00000+0 -55907-3 0  9997
2 01002  32.1416 235.4358 0015660 339.4994  20.4874  9.88355069208223
SOLRAD 7B               
1 01291U 65016D   26087.87363703  .00000031  00000+0  61750-4 0  9997
2 01291  70.0798  47.0086 0023233 231.0720 128.8314 13.94965358105500
SECOR 4 (EGRS 4)        
1 01315U 65027B   26087.83399133 -.00000053  00000+0 -22170-3 0  9996
2 01315  90.2558  13.7343 0032547  52.0937   9.9783 12.92665951876541
TIROS 10                
1 01430U 65051A   26087.87807312  .00000179  00000+0  67850-4 0  9990
2 01430  98.4915 207.6102 0054491 321.0881  38.6391 14.41597142184348
ALOUETTE 2              
1 01804U 65098A   26087.77806877  .00000992  00000+0  31975-3 0  9991
2 01804  79.8042 345.0859 1331031  35.5815 332.7024 12.28277668669403
OV3-3                   
1 02389U 66070A   26087.84065537  .00027401  00000+0  12340-2 0  9997
2 02389  81.3264  41.8143 1020515   6.0201 355.2157 13.43397811588179
SECOR 7 (EGRS 7)        
1 02411U 66077B   26087.92169674  .00000028  00000+0  13063-1 0  9994
2 02411  90.3253 276.5112 0011704 135.8172 224.3616  8.59615546870486
ERS 15                  
1 02412U 66077C   26087.52187370  .00000002  00000+0  00000+0 0  9991
2 02412  90.3279 276.3013 0007190 144.0164 216.1172  8.59079527383534
ISIS 1                  
1 03669U 69009A   26087.92452286  .00000134  00000+0  81634-4 0  9992
2 03669  88.4507 153.2094 1707835  50.3614 323.6083 11.30419081350700
SECOR 13 (EGRS 13)      
1 03891U 69037B   26087.92304712 -.00000024  00000+0  32327-4 0  9994
2 03891  99.6618 322.8483 0040300  88.4643 283.8256 13.42973466790984
ATS 5                   
1 04068U 69069A   26087.83129221 -.00000105  00000+0  00000+0 0  9994
2 04068   0.2544 202.0140 0005911  80.7704 209.5370  0.99495520 45521
OPS 7613 (P/L 4)        
1 04237U 69082E   26087.85278975  .00000046  00000+0  72437-4 0  9991
2 04237  70.0131 275.5035 0022803 238.5414 219.3039 13.95982665875099
OPS 7613 (P/L 1)        
1 04256U 69082B   26087.52565540  .00000091  00000+0  99419-4 0  9992
2 04256  70.0083 138.2956 0019418 179.3924 180.7210 13.99173966879185
SHINSEI (MS-F2)         
1 05485U 71080A   26087.68701733  .00000028  00000+0 -99056-5 0  9990
2 05485  32.0564  91.4469 0639892 226.8053 127.7335 12.74248416538980
PROSPERO (BLACK ARROW)  
1 05580U 71093A   26087.84352164  .00001768  00000+0  37248-3 0  9992
2 05580  82.0430   1.3457 0503041  97.4607 268.3989 14.01439390737278
OPS 7898 (P/L 2)        
1 05680U 71110C   26087.55371311 -.00000014  00000+0  37947-4 0  9997
2 05680  69.9899 169.3249 0010607 269.8265  90.1614 13.74751627337138
