[{"OBJECT_NAME":"OPS 6582 (TRANSIT 5B-5)","OBJECT_ID":"1964-083D","EPOCH":"2026-03-28T21:09:20.458656","MEAN_MOTION":13.5700452,"ECCENTRICITY":0.00426833,"INCLINATION":90.0782,"RA_OF_ASC_NODE":202.3825,"ARG_OF_PERICENTER":150.5448,"MEAN_ANOMALY":330.7237,"EPHEMERIS_TYPE":0,"CLASSIFICATION_TYPE":"U","NORAD_CAT_ID":965,"ELEMENT_SET_NO":999,"REV_AT_EPOCH":3272,"BSTAR":8.8025098e-5,"MEAN_MOTION_DOT":7.3e-7,"MEAN_MOTION_DDOT":0},{"OBJECT_NAME":"LES-1","OBJECT_ID":"1965-008C","EPOCH":"2026-03-28T16:17:44.830176","MEAN_MOTION":9.88355069,"ECCENTRICITY":0.00156603,"INCLINATION":32.1416,"RA_OF_ASC_NODE":235.4358,"ARG_OF_PERICENTER":339.4994,"MEAN_ANOMALY":20.4874,"EPHEMERIS_TYPE":0,"CLASSIFICATION_TYPE":"U","NORAD_CAT_ID":1002,"ELEMENT_SET_NO":999,"REV_AT_EPOCH":20822,"BSTAR":-0.00055907343,"MEAN_MOTION_DOT":4.0e-8,"MEAN_MOTION_DDOT":0},{"OBJECT_NAME":"SOLRAD 7B","OBJECT_ID":"1965-016D","EPOCH":"2026-03-28T20:58:02.239392","MEAN_MOTION":13.94965358,"ECCENTRICITY":0.00232335,"INCLINATION":70.0798,"RA_OF_ASC_NODE":47.0086,"ARG_OF_PERICENTER":231.072,"MEAN_ANOMALY":128.8314,"EPHEMERIS_TYPE":0,"CLASSIFICATION_TYPE":"U","NORAD_CAT_ID":1291,"ELEMENT_SET_NO":999,"REV_AT_EPOCH":10550,"BSTAR":6.1749509e-5,"MEAN_MOTION_DOT":3.1e-7,"MEAN_MOTION_DDOT":0},{"OBJECT_NAME":"SECOR 4 (EGRS 4)","OBJECT_ID":"1965-027B","EPOCH":"2026-03-28T20:00:56.850912","MEAN_MOTION":12.92665951,"ECCENTRICITY":0.00325477,"INCLINATION":90.2558,"RA_OF_ASC_NODE":13.7343,"ARG_OF_PERICENTER":52.0937,"MEAN_ANOMALY":9.9783,"EPHEMERIS_TYPE":0,"CLASSIFICATION_TYPE":"U","NORAD_CAT_ID":1315,"ELEMENT_SET_NO":999,"REV_AT_EPOCH":87654,"BSTAR":-0.00022170047,"MEAN_MOTION_DOT":-5.3e-7,"MEAN_MOTION_DDOT":0},{"OBJECT_NAME":"TIROS 10","OBJECT_ID":"1965-051A","EPOCH":"2026-03-28T21:04:25.517568","MEAN_MOTION":14.41597142,"ECCENTRICITY":0.00544917,"INCLINATION":98.4915,"RA_OF_ASC_NODE":207.6102,"ARG_OF_PERICENTER":321.0881,"MEAN_ANOMALY":38.6391,"EPHEMERIS_TYPE":0,"CLASSIFICATION_TYPE":"U","NORAD_CAT_ID":1430,"ELEMENT_SET_NO":999,"REV_AT_EPOCH":18434,"BSTAR":6.7850196e-5,"MEAN_MOTION_DOT":1.79e-6,"MEAN_MOTION_DDOT":0},{"OBJECT_NAME":"ALOUETTE 2","OBJECT_ID":"1965-098A","EPOCH":"2026-03-28T18:40:25.141728","MEAN_MOTION":12.28277668,"ECCENTRICITY":0.13310312,"INCLINATION":79.8042,"RA_OF_ASC_NODE":345.0859,"ARG_OF_PERICENTER":35.5815,"MEAN_ANOMALY":332.7024,"EPHEMERIS_TYPE":0,"CLASSIFICATION_TYPE":"U","NORAD_CAT_ID":1804,"ELEMENT_SET_NO":999,"REV_AT_EPOCH":66940,"BSTAR":0.00031975264,"MEAN_MOTION_DOT":9.92e-6,"MEAN_MOTION_DDOT":0},{"OBJECT_NAME":"OV3-3","OBJECT_ID":"1966-070A","EPOCH":"2026-03-28T20:10:32.623968","MEAN_MOTION":13.43397811,"ECCENTRICITY":0.1020515,"INCLINATION":81.3264,"RA_OF_ASC_NODE":41.8143,"ARG_OF_PERICENTER":6.0201,"MEAN_ANOMALY":355.2157,"EPHEMERIS_TYPE":0,"CLASSIFICATION_TYPE":"U","NORAD_CAT_ID":2389,"ELEMENT_SET_NO":999,"REV_AT_EPOCH":58817,"BSTAR":0.0012339739,"MEAN_MOTION_DOT":0.00027401,"MEAN_MOTION_DDOT":0},{"OBJECT_NAME":"SECOR 7 (EGRS 7)","OBJECT_ID":"1966-077B","EPOCH":"2026-03-28T22:07:14.598336","MEAN_MOTION":8.59615546,"ECCENTRICITY":0.00117045,"INCLINATION":90.3253,"RA_OF_ASC_NODE":276.5112,"ARG_OF_PERICENTER":135.8172,"MEAN_ANOMALY":224.3616,"EPHEMERIS_TYPE":0,"CLASSIFICATION_TYPE":"U","NORAD_CAT_ID":2411,"ELEMENT_SET_NO":999,"REV_AT_EPOCH":87048,"BSTAR":0.013063255,"MEAN_MOTION_DOT":2.8e-7,"MEAN_MOTION_DDOT":0},{"OBJECT_NAME":"ERS 15","OBJECT_ID":"1966-077C","EPOCH":"2026-03-28T12:31:29.887680","MEAN_MOTION":8.59079527,"ECCENTRICITY":0.00071903,"INCLINATION":90.3279,"RA_OF_ASC_NODE":276.3013,"ARG_OF_PERICENTER":144.0164,"MEAN_ANOMALY":216.1172,"EPHEMERIS_TYPE":0,"CLASSIFICATION_TYPE":"U","NORAD_CAT_ID":2412,"ELEMENT_SET_NO":999,"REV_AT_EPOCH":38353,"BSTAR":0,"MEAN_MOTION_DOT":2.0e-8,"MEAN_MOTION_DDOT":0},{"OBJECT_NAME":"ISIS 1","OBJECT_ID":"1969-009A","EPOCH":"2026-03-28T22:11:18.775104","MEAN_MOTION":11.30419081,"ECCENTRICITY":0.1707835,"INCLINATION":88.4507,"RA_OF_ASC_NODE":153.2094,"ARG_OF_PERICENTER":50.3614,"MEAN_ANOMALY":323.6083,"EPHEMERIS_TYPE":0,"CLASSIFICATION_TYPE":"U","NORAD_CAT_ID":3669,"ELEMENT_SET_NO":999,"REV_AT_EPOCH":35070,"BSTAR":8.1633817e-5,"MEAN_MOTION_DOT":1.34e-6,"MEAN_MOTION_DDOT":0},{"OBJECT_NAME":"SECOR 13 (EGRS 13)","OBJECT_ID":"1969-037B","EPOCH":"2026-03-28T22:09:11.271168","MEAN_MOTION":13.42973466,"ECCENTRICITY":0.00403003,"INCLINATION":99.6618,"RA_OF_ASC_NODE":322.8483,"ARG_OF_PERICENTER":88.4643,"MEAN_ANOMALY":283.8256,"EPHEMERIS_TYPE":0,"CLASSIFICATION_TYPE":"U","NORAD_CAT_ID":3891,"ELEMENT_SET_NO":999,"REV_AT_EPOCH":79098,"BSTAR":3.2327396e-5,"MEAN_MOTION_DOT":-2.4e-7,"MEAN_MOTION_DDOT":0},{"OBJECT_NAME":"ATS 5","OBJECT_ID":"1969-069A","EPOCH":"2026-03-28T19:57:03.646944","MEAN_MOTION":0.9949552,"ECCENTRICITY":0.00059119,"INCLINATION":0.2544,"RA_OF_ASC_NODE":202.014,"ARG_OF_PERICENTER":80.7704,"MEAN_ANOMALY":209.537,"EPHEMERIS_TYPE":0,"CLASSIFICATION_TYPE":"U","NORAD_CAT_ID":4068,"ELEMENT_SET_NO":999,"REV_AT_EPOCH":4552,"BSTAR":0,"MEAN_MOTION_DOT":-1.05e-6,"MEAN_MOTION_DDOT":0},{"OBJECT_NAME":"OPS 7613 (P/L 4)","OBJECT_ID":"1969-082E","EPOCH":"2026-03-28T20:28:01.034400","MEAN_MOTION":13.95982665,"ECCENTRICITY":0.00228033,"INCLINATION":70.0131,"RA_OF_ASC_NODE":275.5035,"ARG_OF_PERICENTER":238.5414,"MEAN_ANOMALY":219.3039,"EPHEMERIS_TYPE":0,"CLASSIFICATION_TYPE":"U","NORAD_CAT_ID":4237,"ELEMENT_SET_NO":999,"REV_AT_EPOCH":87509,"BSTAR":7.2436577e-5,"MEAN_MOTION_DOT":4.6e-7,"MEAN_MOTION_DDOT":0},{"OBJECT_NAME":"OPS 7613 (P/L 1)","OBJECT_ID":"1969-082B","EPOCH":"2026-03-28T12:36:56.626560","MEAN_MOTION":13.99173966,"ECCENTRICITY":0.00194189,"INCLINATION":70.0083,"RA_OF_ASC_NODE":138.2956,"ARG_OF_PERICENTER":179.3924,"MEAN_ANOMALY":180.721,"EPHEMERIS_TYPE":0,"CLASSIFICATION_TYPE":"U","NORAD_CAT_ID":4256,"ELEMENT_SET_NO":999,"REV_AT_EPOCH":87918,"BSTAR":9.9419163e-5,"MEAN_MOTION_DOT":9.1e-7,"MEAN_MOTION_DDOT":0},{"OBJECT_NAME":"SHINSEI (MS-F2)","OBJECT_ID":"1971-080A","EPOCH":"2026-03-28T16:29:18.297312","MEAN_MOTION":12.74248416,"ECCENTRICITY":0.06398921,"INCLINATION":32.0564,"RA_OF_ASC_NODE":91.4469,"ARG_OF_PERICENTER":226.8053,"MEAN_ANOMALY":127.7335,"EPHEMERIS_TYPE":0,"CLASSIFICATION_TYPE":"U","NORAD_CAT_ID":5485,"ELEMENT_SET_NO":999,"REV_AT_EPOCH":53898,"BSTAR":-9.905581e-6,"MEAN_MOTION_DOT":2.8e-7,"MEAN_MOTION_DDOT":0},{"OBJECT_NAME":"PROSPERO (BLACK ARROW)","OBJECT_ID":"1971-093A","EPOCH":"2026-03-28T20:14:40.269696","MEAN_MOTION":14.0143939,"ECCENTRICITY":0.0503041,"INCLINATION":82.043,"RA_OF_ASC_NODE":1.3457,"ARG_OF_PERICENTER":97.4607,"MEAN_ANOMALY":268.3989,"EPHEMERIS_TYPE":0,"CLASSIFICATION_TYPE":"U","NORAD_CAT_ID":5580,"ELEMENT_SET_NO":999,"REV_AT_EPOCH":73727,"BSTAR":0.00037247582,"MEAN_MOTION_DOT":1.768e-5,"MEAN_MOTION_DDOT":0},{"OBJECT_NAME":"OPS 7898 (P/L 2)","OBJECT_ID":"1971-110C","EPOCH":"2026-03-28T13:17:20.812704","MEAN_MOTION":13.74751627,"ECCENTRICITY":0.0010607,"INCLINATION":69.9899,"RA_OF_ASC_NODE":169.3249,"ARG_OF_PERICENTER":269.8265,"MEAN_ANOMALY":90.1614,"EPHEMERIS_TYPE":0,"CLASSIFICATION_TYPE":"U","NORAD_CAT_ID":5680,"ELEMENT_SET_NO":999,"REV_AT_EPOCH":33713,"BSTAR":3.7947e-5,"MEAN_MOTION_DOT":-1.4e-7,"MEAN_MOTION_DDOT":0}]
